{
  "type": "FeatureCollection",
  "features": [
    {
      "type": "Feature",
      "properties": {
        "norad_id": 66795,
        "name": "STARLINK-36047",
        "group": "last-30-days",
        "lat": 41.8369378756926,
        "lon": -46.05740853666742,
        "alt_km": 306.47593067996604,
        "timestamp": "2025-12-14T16:47:39.438056+00:00",
        "meta_object_name": "STARLINK-36047",
        "meta_object_id": "2025-278E",
        "meta_epoch": "2025-12-13T10:14:17.411424",
        "meta_mean_motion": 15.85716251,
        "meta_eccentricity": 0.00027302,
        "meta_inclination": 42.9972,
        "meta_ra_of_asc_node": 247.8787,
        "meta_arg_of_pericenter": 337.2079,
        "meta_mean_anomaly": 22.8673,
        "meta_ephemeris_type": 0,
        "meta_classification_type": "U",
        "meta_norad_cat_id": 66795,
        "meta_element_set_no": 999,
        "meta_rev_at_epoch": 194,
        "meta_bstar": 0.00069096369,
        "meta_mean_motion_dot": 0.00176561,
        "meta_mean_motion_ddot": 0,
        "tle_line1": "1 66795U 25278E   25347.42659041  .00176561  00000+0  69096-3 0  9997",
        "tle_line2": "2 66795  42.9972 247.8787 0002730 337.2079  22.8673 15.85716251  1947"
      },
      "geometry": {
        "type": "Point",
        "coordinates": [
          -46.05740853666742,
          41.8369378756926
        ]
      }
    },
    {
      "type": "Feature",
      "properties": {
        "norad_id": 66796,
        "name": "STARLINK-35964",
        "group": "last-30-days",
        "lat": 38.1989324592226,
        "lon": 1.3865980871886032,
        "alt_km": 280.4932622456363,
        "timestamp": "2025-12-14T16:47:39.438066+00:00",
        "meta_object_name": "STARLINK-35964",
        "meta_object_id": "2025-278F",
        "meta_epoch": "2025-12-13T20:47:46.351680",
        "meta_mean_motion": 15.96921183,
        "meta_eccentricity": 0.00027455,
        "meta_inclination": 42.9941,
        "meta_ra_of_asc_node": 244.2388,
        "meta_arg_of_pericenter": 230.1119,
        "meta_mean_anomaly": 129.9517,
        "meta_ephemeris_type": 0,
        "meta_classification_type": "U",
        "meta_norad_cat_id": 66796,
        "meta_element_set_no": 999,
        "meta_rev_at_epoch": 202,
        "meta_bstar": -0.0013258498,
        "meta_mean_motion_dot": -0.00597138,
        "meta_mean_motion_ddot": 0.00012488021,
        "tle_line1": "1 66796U 25278F   25347.86650870 -.00597138  12488-3 -13258-2 0  9991",
        "tle_line2": "2 66796  42.9941 244.2388 0002745 230.1119 129.9517 15.96921183  2024"
      },
      "geometry": {
        "type": "Point",
        "coordinates": [
          1.3865980871886032,
          38.1989324592226
        ]
      }
    },
    {
      "type": "Feature",
      "properties": {
        "norad_id": 66797,
        "name": "STARLINK-36099",
        "group": "last-30-days",
        "lat": 42.97705393001552,
        "lon": -30.193758391271054,
        "alt_km": 304.7824754178864,
        "timestamp": "2025-12-14T16:47:39.438081+00:00",
        "meta_object_name": "STARLINK-36099",
        "meta_object_id": "2025-278G",
        "meta_epoch": "2025-12-13T02:39:20.871936",
        "meta_mean_motion": 15.86593561,
        "meta_eccentricity": 0.00038292,
        "meta_inclination": 42.9983,
        "meta_ra_of_asc_node": 249.8093,
        "meta_arg_of_pericenter": 302.0122,
        "meta_mean_anomaly": 58.0379,
        "meta_ephemeris_type": 0,
        "meta_classification_type": "U",
        "meta_norad_cat_id": 66797,
        "meta_element_set_no": 999,
        "meta_rev_at_epoch": 189,
        "meta_bstar": 0.0008369452,
        "meta_mean_motion_dot": 0.00224629,
        "meta_mean_motion_ddot": 0,
        "tle_line1": "1 66797U 25278G   25347.11065824  .00224629  00000+0  83695-3 0  9995",
        "tle_line2": "2 66797  42.9983 249.8093 0003829 302.0122  58.0379 15.86593561  1898"
      },
      "geometry": {
        "type": "Point",
        "coordinates": [
          -30.193758391271054,
          42.97705393001552
        ]
      }
    },
    {
      "type": "Feature",
      "properties": {
        "norad_id": 66798,
        "name": "STARLINK-36041",
        "group": "last-30-days",
        "lat": 42.215245734550315,
        "lon": -43.1462250534028,
        "alt_km": 319.83499318542636,
        "timestamp": "2025-12-14T16:47:39.438092+00:00",
        "meta_object_name": "STARLINK-36041",
        "meta_object_id": "2025-278H",
        "meta_epoch": "2025-12-13T20:46:30.395712",
        "meta_mean_motion": 15.84436801,
        "meta_eccentricity": 0.00028001,
        "meta_inclination": 42.997,
        "meta_ra_of_asc_node": 245.1466,
        "meta_arg_of_pericenter": 264.2776,
        "meta_mean_anomaly": 95.7777,
        "meta_ephemeris_type": 0,
        "meta_classification_type": "U",
        "meta_norad_cat_id": 66798,
        "meta_element_set_no": 999,
        "meta_rev_at_epoch": 201,
        "meta_bstar": -0.0061246194,
        "meta_mean_motion_dot": -0.01278615,
        "meta_mean_motion_ddot": 0,
        "tle_line1": "1 66798U 25278H   25347.86562958 -.01278615  00000+0 -61246-2 0  9992",
        "tle_line2": "2 66798  42.9970 245.1466 0002800 264.2776  95.7777 15.84436801  2016"
      },
      "geometry": {
        "type": "Point",
        "coordinates": [
          -43.1462250534028,
          42.215245734550315
        ]
      }
    },
    {
      "type": "Feature",
      "properties": {
        "norad_id": 66799,
        "name": "STARLINK-36044",
        "group": "last-30-days",
        "lat": 41.668493746074496,
        "lon": -12.816471807251244,
        "alt_km": 314.6051660553949,
        "timestamp": "2025-12-14T16:47:39.438102+00:00",
        "meta_object_name": "STARLINK-36044",
        "meta_object_id": "2025-278J",
        "meta_epoch": "2025-12-13T19:14:36.423744",
        "meta_mean_motion": 15.88156331,
        "meta_eccentricity": 0.00292542,
        "meta_inclination": 42.9974,
        "meta_ra_of_asc_node": 245.5274,
        "meta_arg_of_pericenter": 280.3438,
        "meta_mean_anomaly": 79.4139,
        "meta_ephemeris_type": 0,
        "meta_classification_type": "U",
        "meta_norad_cat_id": 66799,
        "meta_element_set_no": 999,
        "meta_rev_at_epoch": 200,
        "meta_bstar": 0.003080361,
        "meta_mean_motion_dot": 0.00899454,
        "meta_mean_motion_ddot": 0.00032948159,
        "tle_line1": "1 66799U 25278J   25347.80181046  .00899454  32948-3  30804-2 0  9995",
        "tle_line2": "2 66799  42.9974 245.5274 0029254 280.3438  79.4139 15.88156331  2009"
      },
      "geometry": {
        "type": "Point",
        "coordinates": [
          -12.816471807251244,
          41.668493746074496
        ]
      }
    },
    {
      "type": "Feature",
      "properties": {
        "norad_id": 66800,
        "name": "STARLINK-35996",
        "group": "last-30-days",
        "lat": 42.81298898646727,
        "lon": -36.10053428656691,
        "alt_km": 314.40482268229607,
        "timestamp": "2025-12-14T16:47:39.438133+00:00",
        "meta_object_name": "STARLINK-35996",
        "meta_object_id": "2025-278K",
        "meta_epoch": "2025-12-13T17:44:21.158592",
        "meta_mean_motion": 15.84673795,
        "meta_eccentricity": 0.00021147,
        "meta_inclination": 42.9967,
        "meta_ra_of_asc_node": 245.9175,
        "meta_arg_of_pericenter": 262.5698,
        "meta_mean_anomaly": 97.4935,
        "meta_ephemeris_type": 0,
        "meta_classification_type": "U",
        "meta_norad_cat_id": 66800,
        "meta_element_set_no": 999,
        "meta_rev_at_epoch": 199,
        "meta_bstar": -0.0019313109,
        "meta_mean_motion_dot": -0.0043956,
        "meta_mean_motion_ddot": 0,
        "tle_line1": "1 66800U 25278K   25347.73913378 -.00439560  00000+0 -19313-2 0  9993",
        "tle_line2": "2 66800  42.9967 245.9175 0002114 262.5698  97.4935 15.84673795  1999"
      },
      "geometry": {
        "type": "Point",
        "coordinates": [
          -36.10053428656691,
          42.81298898646727
        ]
      }
    },
    {
      "type": "Feature",
      "properties": {
        "norad_id": 66801,
        "name": "STARLINK-36080",
        "group": "last-30-days",
        "lat": 42.529045163145476,
        "lon": -19.91417449982828,
        "alt_km": 314.2210828862608,
        "timestamp": "2025-12-14T16:47:39.438145+00:00",
        "meta_object_name": "STARLINK-36080",
        "meta_object_id": "2025-278L",
        "meta_epoch": "2025-12-13T17:41:23.942688",
        "meta_mean_motion": 15.84711999,
        "meta_eccentricity": 0.00022474,
        "meta_inclination": 42.9968,
        "meta_ra_of_asc_node": 245.9008,
        "meta_arg_of_pericenter": 250.3433,
        "meta_mean_anomaly": 109.7198,
        "meta_ephemeris_type": 0,
        "meta_classification_type": "U",
        "meta_norad_cat_id": 66801,
        "meta_element_set_no": 999,
        "meta_rev_at_epoch": 199,
        "meta_bstar": -0.0018490066,
        "meta_mean_motion_dot": -0.00422458,
        "meta_mean_motion_ddot": 0,
        "tle_line1": "1 66801U 25278L   25347.73708267 -.00422458  00000+0 -18490-2 0  9996",
        "tle_line2": "2 66801  42.9968 245.9008 0002247 250.3433 109.7198 15.84711999  1992"
      },
      "geometry": {
        "type": "Point",
        "coordinates": [
          -19.91417449982828,
          42.529045163145476
        ]
      }
    }
  ]
}